H1 CPF 01  gfz 2021 08 24 12  7362 terrasarx 
H2 0702601  6201 31698    2021 08 24 12 59 42 2021 08 29 00 00 42   120 1 1  0 0 0
H9
10 0 59453  35982.000000  0    2267475.626  -2289942.938   6077933.543
10 0 59453  36102.000000  0    2586413.974  -3019620.794   5615308.161
10 0 59453  36222.000000  0    2847831.863  -3701639.342   5053917.612
10 0 59453  36342.000000  0    3048091.833  -4323023.876   4403601.610
10 0 59453  36462.000000  0    3184841.684  -4871800.659   3675775.427
10 0 59453  36582.000000  0    3257039.784  -5337234.475   2883231.513
10 0 59453  36702.000000  0    3264953.662  -5710046.096   2039914.660
10 0 59453  36822.000000  0    3210130.469  -5982603.885   1160673.213
10 0 59453  36942.000000  0    3095341.205  -6149083.668    260992.270
10 0 59453  37062.000000  0    2924500.530  -6205594.967   -643285.469
10 0 59453  37182.000000  0    2702562.054  -6150269.555  -1536249.025
10 0 59453  37302.000000  0    2435391.842  -5983306.349  -2402207.654
10 0 59453  37422.000000  0    2129625.600  -5706976.702  -3225973.351
10 0 59453  37542.000000  0    1792510.328  -5325587.448  -3993132.897
10 0 59453  37662.000000  0    1431737.050  -4845401.911  -4690299.753
10 0 59453  37782.000000  0    1055270.137  -4274525.088  -5305343.024
10 0 59453  37902.000000  0     671175.699  -3622756.509  -5827591.336
10 0 59453  38022.000000  0     287452.675  -2901413.040  -6248008.311
10 0 59453  38142.000000  0     -88129.664  -2123126.499  -6559337.419
10 0 59453  38262.000000  0    -448184.655  -1301620.172  -6756216.053
10 0 59453  38382.000000  0    -785848.767   -451468.061  -6835258.749
10 0 59453  38502.000000  0   -1094908.169    412160.076  -6795108.692
10 0 59453  38622.000000  0   -1369910.175   1273762.684  -6636457.418
10 0 59453  38742.000000  0   -1606257.169   2117777.662  -6362034.019
10 0 59453  38862.000000  0   -1800282.040   2928856.319  -5976563.824
10 0 59453  38982.000000  0   -1949305.269   3692138.975  -5486696.617
10 0 59453  39102.000000  0   -2051671.333   4393526.103  -4900902.656
10 0 59453  39222.000000  0   -2106764.976   5019942.046  -4229337.862
10 0 59453  39342.000000  0   -2115005.885   5559584.944  -3483676.957
10 0 59453  39462.000000  0   -2077821.176   6002156.711  -2676918.274
10 0 59453  39582.000000  0   -1997596.409   6339069.877  -1823163.108
10 0 59453  39702.000000  0   -1877606.595   6563625.439   -937370.210
10 0 59453  39822.000000  0   -1721927.690   6671155.298    -35092.162
10 0 59453  39942.000000  0   -1535330.644   6659128.878    867802.178
10 0 59453  40062.000000  0   -1323160.366   6527216.713   1755417.732
10 0 59453  40182.000000  0   -1091201.946   6277305.204   2612123.585
10 0 59453  40302.000000  0    -845538.751   5913467.515   3422835.380
10 0 59453  40422.000000  0    -592406.333   5441892.516   4173286.248
10 0 59453  40542.000000  0    -338045.907   4870772.997   4850283.173
10 0 59453  40662.000000  0     -88558.837   4210150.517   5441940.947
10 0 59453  40782.000000  0     150232.223   3471729.858   5937885.810
10 0 59453  40902.000000  0     372912.046   2668663.792   6329434.563
10 0 59453  41022.000000  0     574590.020   1815311.632   6609740.251
10 0 59453  41142.000000  0     751003.319    926978.337   6773906.108
10 0 59453  41262.000000  0     898603.945     19637.883   6819065.121
10 0 59453  41382.000000  0    1014628.527   -890352.672   6744427.167
10 0 59453  41502.000000  0    1097149.636  -1786547.736   6551293.079
10 0 59453  41622.000000  0    1145107.932  -2652709.976   6243033.801
10 0 59453  41742.000000  0    1158324.560  -3473105.914   5825035.561
10 0 59453  41862.000000  0    1137492.839  -4232794.112   5304609.513
10 0 59453  41982.000000  0    1084151.497  -4917899.800   4690869.398
10 0 59453  42102.000000  0    1000638.818  -5515874.593   3994579.085
10 0 59453  42222.000000  0     890028.216  -6015736.552   3227968.097
10 0 59453  42342.000000  0     756046.738  -6408281.996   2404517.417
10 0 59453  42462.000000  0     602977.221  -6686264.399   1538720.999
10 0 59453  42582.000000  0     435547.345  -6844536.706    645827.076
10 0 59453  42702.000000  0     258808.080  -6880154.785   -258437.653
10 0 59453  42822.000000  0      78003.669  -6792433.973  -1158155.985
10 0 59453  42942.000000  0    -101561.522  -6582958.216  -2037509.639
10 0 59453  43062.000000  0    -274656.382  -6255544.784  -2881064.029
10 0 59453  43182.000000  0    -436253.747  -5816165.813  -3674044.219
10 0 59453  43302.000000  0    -581655.309  -5272827.545  -4402596.353
10 0 59453  43422.000000  0    -706607.254  -4635410.746  -5054027.563
10 0 59453  43542.000000  0    -807404.131  -3915479.137  -5617020.870
10 0 59453  43662.000000  0    -880978.663  -3126059.793  -6081823.085
10 0 59453  43782.000000  0    -924975.816  -2281400.585  -6440403.252
10 0 59453  43902.000000  0    -937810.128  -1396709.644  -6686579.811
10 0 59453  44022.000000  0    -918705.670   -487882.696  -6816116.520
10 0 59453  44142.000000  0    -867717.825    428778.736  -6826787.589
10 0 59453  44262.000000  0    -785736.157   1336852.979  -6718410.528
10 0 59453  44382.000000  0    -674469.300   2220084.670  -6492848.870
10 0 59453  44502.000000  0    -536411.952   3062668.445  -6153984.083
10 0 59453  44622.000000  0    -374793.548   3849527.895  -5707657.266
10 0 59453  44742.000000  0    -193509.438   4566584.500  -5161578.048
10 0 59453  44862.000000  0       2963.852   5201011.771  -4525203.031
10 0 59453  44982.000000  0     209668.030   5741471.832  -3809582.958
10 0 59453  45102.000000  0     421275.790   6178327.755  -3027179.498
10 0 59453  45222.000000  0     632214.550   6503827.012  -2191654.702
10 0 59453  45342.000000  0     836798.664   6712252.195  -1317635.272
10 0 59453  45462.000000  0    1029367.015   6800033.600   -420455.064
10 0 59453  45582.000000  0    1204422.701   6765820.162    484118.912
10 0 59453  45702.000000  0    1356770.970   6610505.257   1380171.155
10 0 59453  45822.000000  0    1481650.886   6337207.707   2251925.444
10 0 59453  45942.000000  0    1574858.277   5951209.293   3084030.596
10 0 59453  46062.000000  0    1632857.288   5459849.450   3861838.410
10 0 59453  46182.000000  0    1652876.822   4872378.209   4571667.671
10 0 59453  46302.000000  0    1632990.702   4199772.403   5201048.713
10 0 59453  46422.000000  0    1572176.709   3454518.284   5738941.206
10 0 59453  46542.000000  0    1470356.802   2650372.295   6175922.194
10 0 59453  46662.000000  0    1328416.516   1802100.974   6504346.878
10 0 59453  46782.000000  0    1148203.343    925204.596   6718476.601
10 0 59453  46902.000000  0     932504.192     35631.475   6814572.098
10 0 59453  47022.000000  0     685002.563   -850510.607   6790954.898
10 0 59453  47142.000000  0     410215.492  -1717245.964   6648036.333
10 0 59453  47262.000000  0     113411.037  -2549018.866   6388310.849
10 0 59453  47382.000000  0    -199492.236  -3330973.877   6016315.006
10 0 59453  47502.000000  0    -522040.896  -4049222.226   5538550.420
10 0 59453  47622.000000  0    -847375.916  -4691089.699   4963376.365
10 0 59453  47742.000000  0   -1168374.855  -5245346.732   4300872.669
10 0 59453  47862.000000  0   -1477804.783  -5702415.445   3562668.261
10 0 59453  47982.000000  0   -1768480.962  -6054544.907   2761738.215
10 0 59453  48102.000000  0   -2033428.712  -6295951.397   1912175.510
10 0 59453  48222.000000  0   -2266044.783  -6422921.227   1028939.555
10 0 59453  48342.000000  0   -2460252.366  -6433872.158    127586.091
10 0 59453  48462.000000  0   -2610646.745  -6329372.222   -776014.994
10 0 59453  48582.000000  0   -2712627.965  -6112114.987  -1665967.970
10 0 59453  48702.000000  0   -2762517.473  -5786852.013  -2526639.210
10 0 59453  48822.000000  0   -2757655.546  -5360284.482  -3342938.814
10 0 59453  48942.000000  0   -2696476.612  -4840916.345  -4100589.300
10 0 59453  49062.000000  0   -2578561.021  -4238874.270  -4786374.587
10 0 59453  49182.000000  0   -2404663.069  -3565700.679  -5388365.670
10 0 59453  49302.000000  0   -2176715.465  -2834124.828  -5896120.504
10 0 59453  49422.000000  0   -1897810.001  -2057816.543  -6300855.813
10 0 59453  49542.000000  0   -1572154.221  -1251127.662  -6595588.026
10 0 59453  49662.000000  0   -1205006.726   -428827.114  -6775241.929
10 0 59453  49782.000000  0    -802592.740    394165.655  -6836727.955
10 0 59453  49902.000000  0    -371999.761   1203044.759  -6778989.261
10 0 59453  50022.000000  0      78944.410   1983377.308  -6603017.547
10 0 59453  50142.000000  0     541809.063   2721354.314  -6311839.045
10 0 59453  50262.000000  0    1007714.855   3404031.889  -5910469.691
10 0 59453  50382.000000  0    1467500.109   4019557.060  -5405836.454
10 0 59453  50502.000000  0    1911896.876   4557374.766  -4806668.969
10 0 59453  50622.000000  0    2331715.157   5008414.631  -4123360.275
10 0 59453  50742.000000  0    2718030.823   5365252.033  -3367795.757
10 0 59453  50862.000000  0    3062373.715   5622239.764  -2553154.444
10 0 59453  50982.000000  0    3356912.590   5775607.717  -1693683.457
10 0 59453  51102.000000  0    3594631.528   5823526.590   -804449.162
10 0 59453  51222.000000  0    3769492.690   5766133.504     98930.724
10 0 59453  51342.000000  0    3876581.276   5605517.987   1000567.809
10 0 59453  51462.000000  0    3912229.305   5345667.933   1884590.129
10 0 59453  51582.000000  0    3874114.893   4992378.371   2735429.046
10 0 59453  51702.000000  0    3761334.117   4553124.757   3538103.438
10 0 59453  51822.000000  0    3574442.176   4036899.818   4278489.071
10 0 59453  51942.000000  0    3315467.200   3454025.681   4943570.541
10 0 59453  52062.000000  0    2987889.683   2815941.542   5521673.248
10 0 59453  52182.000000  0    2596593.454   2134971.687   6002663.984
10 0 59453  52302.000000  0    2147791.551   1424083.093   6378123.385
10 0 59453  52422.000000  0    1648924.240    696634.519   6641487.798
99
